{
    "links": {
        "self": "http://www.neowsapp.com/rest/v1/neo/3445545?api_key=iIulBulltgU6a56xZRHN4H3l9WmuAYTsLGpBGhQ2"
    },
    "id": "3445545",
    "neo_reference_id": "3445545",
    "name": "(2009 CF)",
    "designation": "2009 CF",
    "nasa_jpl_url": "http://ssd.jpl.nasa.gov/sbdb.cgi?sstr=3445545",
    "absolute_magnitude_h": 23.6,
    "estimated_diameter": {
        "kilometers": {
            "estimated_diameter_min": 0.0506471459,
            "estimated_diameter_max": 0.1132504611
        },
        "meters": {
            "estimated_diameter_min": 50.6471458835,
            "estimated_diameter_max": 113.2504610618
        },
        "miles": {
            "estimated_diameter_min": 0.0314706677,
            "estimated_diameter_max": 0.0703705522
        },
        "feet": {
            "estimated_diameter_min": 166.1651821003,
            "estimated_diameter_max": 371.5566426699
        }
    },
    "is_potentially_hazardous_asteroid": false,
    "close_approach_data": [
        {
            "close_approach_date": "2009-02-07",
            "close_approach_date_full": "2009-Feb-07 01:34",
            "epoch_date_close_approach": 1233970440000,
            "relative_velocity": {
                "kilometers_per_second": "18.222410047",
                "kilometers_per_hour": "65600.6761690722",
                "miles_per_hour": "40761.7090340549"
            },
            "miss_distance": {
                "astronomical": "0.1500284639",
                "lunar": "58.3610724571",
                "kilometers": "22443938.638811893",
                "miles": "13946016.7847664034"
            },
            "orbiting_body": "Earth"
        }
    ],
    "orbital_data": {
        "orbit_id": "6",
        "orbit_determination_date": "2017-04-06 09:01:27",
        "first_observation_date": "2009-02-01",
        "last_observation_date": "2009-02-02",
        "data_arc_in_days": 1,
        "observations_used": 23,
        "orbit_uncertainty": "9",
        "minimum_orbit_intersection": ".147446",
        "jupiter_tisserand_invariant": "3.511",
        "epoch_osculation": "2454864.5",
        "eccentricity": ".5097344353723176",
        "semi_major_axis": "2.018398476588603",
        "inclination": "29.46850913506481",
        "ascending_node_longitude": "309.6440733668538",
        "orbital_period": "1047.390888255652",
        "perihelion_distance": ".9895512687683655",
        "perihelion_argument": "236.195964660944",
        "aphelion_distance": "3.047245684408841",
        "perihelion_time": "2454911.929914697175",
        "mean_anomaly": "343.697806155809",
        "mean_motion": ".3437112199816366",
        "equinox": "J2000",
        "orbit_class": {
            "orbit_class_type": "APO",
            "orbit_class_description": "Near-Earth asteroid orbits which cross the Earth’s orbit similar to that of 1862 Apollo",
            "orbit_class_range": "a (semi-major axis) > 1.0 AU; q (perihelion) < 1.017 AU"
        }
    },
    "is_sentry_object": false
}